[{"OBJECT_NAME":"STARLINK-5737","OBJECT_ID":"2023-020B","EPOCH":"2026-03-09T22:00:01.999584","MEAN_MOTION":15.1388219,"ECCENTRICITY":0.00010422,"INCLINATION":43.0006,"RA_OF_ASC_NODE":3.3868,"ARG_OF_PERICENTER":257.7243,"MEAN_ANOMALY":107.1398,"EPHEMERIS_TYPE":0,"CLASSIFICATION_TYPE":"U","NORAD_CAT_ID":55570,"ELEMENT_SET_NO":999,"REV_AT_EPOCH":577,"BSTAR":0.033208874,"MEAN_MOTION_DOT":0.00653406,"MEAN_MOTION_DDOT":0},{"OBJECT_NAME":"FLOCK 4H-19","OBJECT_ID":"2025-276BJ","EPOCH":"2026-03-09T17:51:43.994880","MEAN_MOTION":15.19883361,"ECCENTRICITY":2.675e-5,"INCLINATION":97.425,"RA_OF_ASC_NODE":144.1303,"ARG_OF_PERICENTER":247.623,"MEAN_ANOMALY":112.4977,"EPHEMERIS_TYPE":0,"CLASSIFICATION_TYPE":"U","NORAD_CAT_ID":66722,"ELEMENT_SET_NO":999,"REV_AT_EPOCH":1462,"BSTAR":0.00035971789,"MEAN_MOTION_DOT":7.656e-5,"MEAN_MOTION_DDOT":0}]
